{
    "links": {
        "self": "http://www.neowsapp.com/rest/v1/neo/3841835?api_key=iIulBulltgU6a56xZRHN4H3l9WmuAYTsLGpBGhQ2"
    },
    "id": "3841835",
    "neo_reference_id": "3841835",
    "name": "(2019 JJ5)",
    "designation": "2019 JJ5",
    "nasa_jpl_url": "http://ssd.jpl.nasa.gov/sbdb.cgi?sstr=3841835",
    "absolute_magnitude_h": 23.2,
    "estimated_diameter": {
        "kilometers": {
            "estimated_diameter_min": 0.0608912622,
            "estimated_diameter_max": 0.1361570015
        },
        "meters": {
            "estimated_diameter_min": 60.8912622106,
            "estimated_diameter_max": 136.1570015386
        },
        "miles": {
            "estimated_diameter_min": 0.0378360645,
            "estimated_diameter_max": 0.0846040122
        },
        "feet": {
            "estimated_diameter_min": 199.7744887109,
            "estimated_diameter_max": 446.7093369279
        }
    },
    "is_potentially_hazardous_asteroid": false,
    "close_approach_data": [
        {
            "close_approach_date": "2019-05-16",
            "close_approach_date_full": "2019-May-16 20:57",
            "epoch_date_close_approach": 1558040220000,
            "relative_velocity": {
                "kilometers_per_second": "17.9120141155",
                "kilometers_per_hour": "64483.2508157813",
                "miles_per_hour": "40067.3843749503"
            },
            "miss_distance": {
                "astronomical": "0.1748029804",
                "lunar": "67.9983593756",
                "kilometers": "26150153.537491748",
                "miles": "16248951.9342842024"
            },
            "orbiting_body": "Earth"
        }
    ],
    "orbital_data": {
        "orbit_id": "1",
        "orbit_determination_date": "2019-05-12 11:12:05",
        "first_observation_date": "2019-05-08",
        "last_observation_date": "2019-05-11",
        "data_arc_in_days": 3,
        "observations_used": 11,
        "orbit_uncertainty": "9",
        "minimum_orbit_intersection": ".156371",
        "jupiter_tisserand_invariant": "4.193",
        "epoch_osculation": "2458612.5",
        "eccentricity": ".2809215993227146",
        "semi_major_axis": "1.565408328104658",
        "inclination": "34.40305423848638",
        "ascending_node_longitude": "51.18611926731517",
        "orbital_period": "715.3850940427322",
        "perihelion_distance": "1.125651316980401",
        "perihelion_argument": "214.7504158343298",
        "aphelion_distance": "2.005165339228915",
        "perihelion_time": "2458657.977663076886",
        "mean_anomaly": "337.1144816351164",
        "mean_motion": ".5032254697474813",
        "equinox": "J2000",
        "orbit_class": {
            "orbit_class_type": "AMO",
            "orbit_class_description": "Near-Earth asteroid orbits similar to that of 1221 Amor",
            "orbit_class_range": "1.017 AU < q (perihelion) < 1.3 AU"
        }
    },
    "is_sentry_object": false
}